NORAD_CAT_ID,OBJECT_NAME,OBJECT_TYPE,EPOCH,MEAN_MOTION,ECCENTRICITY,INCLINATION,RA_OF_ASC_NODE,ARG_OF_PERICENTER,MEAN_ANOMALY,BSTAR,MEAN_MOTION_DOT,MEAN_MOTION_DDOT,TLE_LINE0,TLE_LINE1,TLE_LINE2,SEMIMAJOR_AXIS,PERIOD,APOGEE,PERIGEE,DECAYED
51799.0,STARLINK-3637,PAYLOAD,2024-07-08 08:20:18,15.08836239,0.0001169,53.2164,204.5662,85.4499,274.6627,9.1301e-05,1.165e-05,0.0,0 STARLINK-3637,1 51799U 22017AH  24190.34743101  .00001165  00000-0  91301-4 0  9993,2 51799  53.2164 204.5662 0001169  85.4499 274.6627 15.08836239131931,6917.892,95.438,540.566,538.948,0.0
51799.0,STARLINK-3637,PAYLOAD,2024-07-08 17:52:36,15.08838864,0.0001164,53.2162,202.782,85.1201,274.9924,8.488e-05,1.063e-05,0.0,0 STARLINK-3637,1 51799U 22017AH  24190.74487051  .00001063  00000-0  84880-4 0  9997,2 51799  53.2162 202.7820 0001164  85.1201 274.9924 15.08838864131993,6917.884,95.438,540.554,538.944,0.0
51799.0,STARLINK-3637,PAYLOAD,2024-07-09 05:00:18,15.08837849,0.0001173,53.2163,200.7004,85.967,274.1456,6.7634e-05,7.89e-06,0.0,0 STARLINK-3637,1 51799U 22017AH  24191.20855219  .00000789  00000-0  67634-4 0  9996,2 51799  53.2163 200.7004 0001173  85.9670 274.1456 15.08837849132067,6917.887,95.438,540.563,538.94,0.0
51799.0,STARLINK-3637,PAYLOAD,2024-07-09 09:46:28,15.08840504,0.0001173,53.2162,199.8082,85.6413,274.4713,7.0524e-05,8.35e-06,0.0,0 STARLINK-3637,1 51799U 22017AH  24191.40727047  .00000835  00000-0  70524-4 0  9999,2 51799  53.2162 199.8082 0001173  85.6413 274.4713 15.08840504132096,6917.879,95.438,540.555,538.932,0.0
51799.0,STARLINK-3637,PAYLOAD,2024-07-10 08:01:52,15.08840129,0.0001177,53.2161,195.645,86.581,273.5316,4.9493e-05,5e-06,0.0,0 STARLINK-3637,1 51799U 22017AH  24192.33463144  .00000500  00000-0  49493-4 0  9997,2 51799  53.2161 195.6450 0001177  86.5810 273.5316 15.08840129132231,6917.88,95.438,540.559,538.931,0.0
51799.0,STARLINK-3637,PAYLOAD,2024-07-11 06:17:15,15.08843489,0.0001197,53.216,191.4815,87.6834,272.4295,6.4445e-05,7.38e-06,0.0,0 STARLINK-3637,1 51799U 22017AH  24193.26198832  .00000738  00000-0  64445-4 0  9996,2 51799  53.2160 191.4815 0001197  87.6834 272.4295 15.08843489132370,6917.87,95.437,540.563,538.907,0.0
51799.0,STARLINK-3637,PAYLOAD,2024-07-11 17:24:57,15.08844894,0.0001205,53.2162,189.4001,87.9514,272.1617,7.4929e-05,9.05e-06,0.0,0 STARLINK-3637,1 51799U 22017AH  24193.72566611  .00000905  00000-0  74929-4 0  9995,2 51799  53.2162 189.4001 0001205  87.9514 272.1617 15.08844894132448,6917.865,95.437,540.564,538.897,0.0
51799.0,STARLINK-3637,PAYLOAD,2024-07-12 04:32:39,15.08838035,0.0001284,53.2167,187.3188,92.3447,267.7692,4.2698e-05,3.92e-06,0.0,0 STARLINK-3637,1 51799U 22017AH  24194.18935165  .00000392  00000-0  42698-4 0  9998,2 51799  53.2167 187.3188 0001284  92.3447 267.7692 15.08838035132519,6917.886,95.438,540.64,538.863,0.0
51799.0,STARLINK-3637,PAYLOAD,2024-07-12 09:18:49,15.08840048,0.0001361,53.2166,186.4262,95.8289,264.2858,5.2717e-05,5.51e-06,0.0,0 STARLINK-3637,1 51799U 22017AH  24194.38806999  .00000551  00000-0  52717-4 0  9992,2 51799  53.2166 186.4262 0001361  95.8289 264.2858 15.08840048132545,6917.88,95.438,540.687,538.804,0.0
51799.0,STARLINK-3637,PAYLOAD,2024-07-13 09:09:36,15.08835737,0.0001344,53.2163,181.9658,94.206,265.9085,-1.1936e-05,-4.78e-06,0.0,0 STARLINK-3637,1 51799U 22017AH  24195.38167616 -.00000478  00000-0 -11936-4 0  9997,2 51799  53.2163 181.9658 0001344  94.2060 265.9085 15.08835737132697,6917.893,95.438,540.688,538.829,0.0
51799.0,STARLINK-3637,PAYLOAD,2024-07-14 04:14:13,15.08841639,0.0001294,53.2158,178.3972,93.149,266.965,8.77e-05,1.108e-05,0.0,0 STARLINK-3637,1 51799U 22017AH  24196.17655090  .00001108  00000-0  87700-4 0  9994,2 51799  53.2158 178.3972 0001294  93.1490 266.9650 15.08841639132810,6917.875,95.437,540.636,538.845,0.0
51799.0,STARLINK-3637,PAYLOAD,2024-07-14 05:49:37,15.08843003,0.0001284,53.2158,178.1,92.6404,267.4735,9.8846e-05,1.286e-05,0.0,0 STARLINK-3637,1 51799U 22017AH  24196.24278977  .00001286  00000-0  98846-4 0  9997,2 51799  53.2158 178.1000 0001284  92.6404 267.4735 15.08843003132826,6917.871,95.437,540.624,538.848,0.0
51799.0,STARLINK-3637,PAYLOAD,2024-07-14 15:21:55,15.08849446,0.0001309,53.2162,176.3158,92.9495,267.1647,0.0001421,1.975e-05,0.0,0 STARLINK-3637,1 51799U 22017AH  24196.64022356  .00001975  00000-0  14210-3 0  9996,2 51799  53.2162 176.3158 0001309  92.9495 267.1647 15.08849446132888,6917.852,95.437,540.622,538.811,0.0
51799.0,STARLINK-3637,PAYLOAD,2024-07-15 05:40:24,15.08832157,0.0001577,53.2183,173.6448,102.9479,257.1689,5.1197e-05,5.27e-06,0.0,0 STARLINK-3637,1 51799U 22017AH  24197.23639917  .00000527  00000-0  51197-4 0  9997,2 51799  53.2183 173.6448 0001577 102.9479 257.1689 15.08832157132970,6917.904,95.438,540.86,538.678,0.0
51799.0,STARLINK-3637,PAYLOAD,2024-07-15 08:51:10,15.08837197,0.0001342,53.2164,173.0451,86.4538,273.6608,7.7949e-05,9.53e-06,0.0,0 STARLINK-3637,1 51799U 22017AH  24197.36887484  .00000953  00000-0  77949-4 0  9991,2 51799  53.2164 173.0451 0001342  86.4538 273.6608 15.08837197132994,6917.889,95.438,540.682,538.826,0.0
51799.0,STARLINK-3637,PAYLOAD,2024-07-15 15:12:43,15.08840791,0.0001368,53.2167,171.8561,89.3976,270.7173,8.9479e-05,1.136e-05,0.0,0 STARLINK-3637,1 51799U 22017AH  24197.63383284  .00001136  00000-0  89479-4 0  9995,2 51799  53.2167 171.8561 0001368  89.3976 270.7173 15.08840791133036,6917.878,95.438,540.689,538.797,0.0
51799.0,STARLINK-3637,PAYLOAD,2024-07-16 03:55:48,15.08836172,0.000158,53.2178,169.4785,96.0392,264.0781,-2.994e-05,-7.64e-06,0.0,0 STARLINK-3637,1 51799U 22017AH  24198.16376036 -.00000764  00000-0 -29940-4 0  9996,2 51799  53.2178 169.4785 0001580  96.0392 264.0781 15.08836172133110,6917.892,95.438,540.85,538.664,0.0
51799.0,STARLINK-3637,PAYLOAD,2024-07-16 07:06:34,15.08839439,0.0001594,53.2182,168.884,95.4523,264.6651,-5.0068e-06,-3.68e-06,0.0,0 STARLINK-3637,1 51799U 22017AH  24198.29623781 -.00000368  00000-0 -50068-5 0  9998,2 51799  53.2182 168.8840 0001594  95.4523 264.6651 15.08839439133137,6917.882,95.438,540.85,538.644,0.0
51799.0,STARLINK-3637,PAYLOAD,2024-07-17 06:57:21,15.08845136,0.0001503,53.2177,164.4226,87.0827,273.0337,8.2722e-05,1.029e-05,0.0,0 STARLINK-3637,1 51799U 22017AH  24199.28983060  .00001029  00000-0  82722-4 0  9991,2 51799  53.2177 164.4226 0001503  87.0827 273.0337 15.08845136133287,6917.865,95.437,540.769,538.69,0.0
51799.0,STARLINK-3637,PAYLOAD,2024-07-17 14:54:16,15.08849008,0.0001437,53.217,162.9348,85.3542,274.7614,0.00010701,1.416e-05,0.0,0 STARLINK-3637,1 51799U 22017AH  24199.62102724  .00001416  00000-0  10701-3 0  9996,2 51799  53.2170 162.9348 0001437  85.3542 274.7614 15.08849008133333,6917.853,95.437,540.712,538.724,0.0
51799.0,STARLINK-3637,PAYLOAD,2024-07-18 03:37:23,15.08835166,0.0001198,53.2159,160.5564,78.3806,281.7321,-4.9514e-05,-1.076e-05,0.0,0 STARLINK-3637,1 51799U 22017AH  24200.15096150 -.00001076  00000-0 -49514-4 0  9991,2 51799  53.2159 160.5564 0001198  78.3806 281.7321 15.08835166133415,6917.895,95.438,540.589,538.931,0.0
51799.0,STARLINK-3637,PAYLOAD,2024-07-18 06:48:09,15.0883917,0.0001397,53.2171,159.9564,83.3008,276.8143,3.0962e-05,2.05e-06,0.0,0 STARLINK-3637,1 51799U 22017AH  24200.28343753  .00000205  00000-0  30962-4 0  9997,2 51799  53.2171 159.9564 0001397  83.3008 276.8143 15.08839170133430,6917.883,95.438,540.714,538.781,0.0
51799.0,STARLINK-3637,PAYLOAD,2024-07-18 14:45:04,15.08849992,0.0001437,53.2167,158.4753,80.5715,279.544,9.1397e-05,1.167e-05,0.0,0 STARLINK-3637,1 51799U 22017AH  24200.61462994  .00001167  00000-0  91397-4 0  9990,2 51799  53.2167 158.4753 0001437  80.5715 279.5440 15.08849992133486,6917.85,95.437,540.709,538.721,0.0
51799.0,STARLINK-3637,PAYLOAD,2024-07-19 03:28:09,15.08838814,0.0001452,53.2164,156.0934,96.2388,263.8769,-1.3146e-05,-4.97e-06,0.0,0 STARLINK-3637,1 51799U 22017AH  24201.14455652 -.00000497  00000-0 -13146-4 0  9995,2 51799  53.2164 156.0934 0001452  96.2388 263.8769 15.08838814133565,6917.884,95.438,540.753,538.745,0.0
51799.0,STARLINK-3637,PAYLOAD,2024-07-19 06:38:55,15.08839841,0.0001535,53.2168,155.4956,107.1141,253.0019,1.5923e-05,-3.5e-07,0.0,0 STARLINK-3637,1 51799U 22017AH  24201.27703553 -.00000035  00000-0  15923-4 0  9997,2 51799  53.2168 155.4956 0001535 107.1141 253.0019 15.08839841133589,6917.881,95.438,540.808,538.684,0.0
51799.0,STARLINK-3637,PAYLOAD,2024-07-20 03:18:57,15.08835747,0.0001565,53.2175,151.6327,91.6748,268.4424,0.00016816,2.389e-05,0.0,0 STARLINK-3637,1 51799U 22017AH  24202.13816119  .00002389  00000-0  16816-3 0  9990,2 51799  53.2175 151.6327 0001565  91.6748 268.4424 15.08835747133716,6917.893,95.438,540.841,538.676,0.0
51799.0,STARLINK-3637,PAYLOAD,2024-07-21 03:09:44,15.08840052,0.000143,53.2161,147.1695,96.7018,263.4137,6.6355e-05,7.68e-06,0.0,0 STARLINK-3637,1 51799U 22017AH  24203.13176047  .00000768  00000-0  66355-4 0  9993,2 51799  53.2161 147.1695 0001430  96.7018 263.4137 15.08840052133863,6917.88,95.438,540.734,538.756,0.0
51799.0,STARLINK-3637,PAYLOAD,2024-07-22 01:25:08,15.08834955,0.00013,53.2167,143.0065,93.8959,266.2182,4.956e-05,5.01e-06,0.0,0 STARLINK-3637,1 51799U 22017AH  24204.05912733  .00000501  00000-0  49560-4 0  9999,2 51799  53.2167 143.0065 0001300  93.8959 266.2182 15.08834955134006,6917.896,95.438,540.66,538.861,0.0
51799.0,STARLINK-3637,PAYLOAD,2024-07-22 18:54:22,15.08838086,0.0001221,53.2168,139.7401,100.4443,259.6686,0.00012299,1.67e-05,0.0,0 STARLINK-3637,1 51799U 22017AH  24204.78776514  .00001670  00000-0  12299-3 0  9990,2 51799  53.2168 139.7401 0001221 100.4443 259.6686 15.08838086134114,6917.886,95.438,540.596,538.907,0.0
51799.0,STARLINK-3637,PAYLOAD,2024-07-23 12:23:36,15.08848657,0.0001268,53.217,136.4682,97.2788,262.8349,0.00021506,3.137e-05,0.0,0 STARLINK-3637,1 51799U 22017AH  24205.51639752  .00003137  00000-0  21506-3 0  9995,2 51799  53.2170 136.4682 0001268  97.2788 262.8349 15.08848657134227,6917.854,95.437,540.596,538.842,0.0
